{
  "norad_id": 46356,
  "name": "STARLINK-1665",
  "history": [
    {
      "epoch": "2026-03-28T20:28:26.038560Z",
      "apogee_km": 368.62154553646633,
      "perigee_km": 361.00187863283645,
      "latitude_deg": -5.25197446449936e-05,
      "longitude_deg": 109.29049761527986,
      "height_km": 362.2693446242762,
      "semi_major_axis_km": 6742.948712084651,
      "eccentricity": 0.00056501,
      "inclination_deg": 53.0395,
      "raan_deg": 242.6666,
      "arg_perigee_deg": 334.7607,
      "mean_anomaly_deg": 25.3131,
      "mean_motion_rev_day": 15.67934721
    }
  ]
}