{"fetched_at":"2026-03-30T06:02:59Z","count":15439,"tles":[{"name":"STARLINK-1665","line1":"1 46356U 20062AH  26087.85307915  .00115433  00000+0  10151-2 0  9991","line2":"2 46356  53.0395 242.6666 0005650 334.7607  25.3131 15.67934721307874","category":"Starlink"}]}